YOTSUBA-KULOVER         
1 65941U 98067XN  26060.34973822  .00181603  00000+0  10771-2 0  9993
2 65941  51.6222 100.4331 0006112  19.8048 340.3188 15.76940610 22186
BOTAN                   
1 65942U 98067XP  26060.32892748  .01991374  37933-2  17297-2 0  9992
2 65942  51.6093  93.3995 0006842  39.1940 320.9569 16.13419316 22278
E-KAGAKU-1              
1 65943U 98067XQ  26060.47942404  .00173992  00000+0  10418-2 0  9991
2 65943  51.6239  99.8138 0006310  28.4787 331.6556 15.76747517 22204
HRC MONOBLOCK CAMERA    
1 66052U 98067XR  26060.82964012  .00054879  00000+0  63635-3 0  9993
2 66052  51.6275 105.1747 0003342  58.2632 301.8687 15.61244027 21165
HTV-X1                  
1 66174U 25241A   26060.57520306  .00009927  00000+0  19202-3 0  9993
2 66174  51.6320 112.4722 0008284 146.1756 213.9762 15.48382986554798
SZ-21 MODULE            
1 66515U 25246C   26060.60353166  .00039570  00000+0  35055-3 0  9990
2 66515  41.4736 253.1136 0001468 286.2005  73.8675 15.67828728 16808
SHENZHOU-22             
1 66645U 25272A   26060.77952831  .00016927  00000+0  20477-3 0  9998
2 66645  41.4651 256.2782 0006462 223.4056 136.6275 15.60278755267878
SOYUZ-MS 28             
1 66664U 25275A   26060.57520306  .00009927  00000+0  19202-3 0  9994
2 66664  51.6320 112.4722 0008284 146.1756 213.9762 15.48382986554848
DUPLEX                  
1 66906U 98067XS  26060.42911294  .00033610  00000+0  48582-3 0  9995
2 66906  51.6290 110.7512 0001960  85.3418 274.7797 15.55608097 13849
ISS OBJECT XT           
1 66907U 98067XT  26060.42410611  .00137518  00000+0  12738-2 0  9998
2 66907  51.6255 107.7079 0004392  30.0220 330.1027 15.66538666 13888
ISS OBJECT XU           
1 66908U 98067XU  26060.42283310  .00138414  00000+0  12779-2 0  9994
2 66908  51.6252 107.6969 0004524  32.6879 327.4396 15.66615725 13888
SILVERSAT               
1 66909U 98067XV  26060.37382286  .00169451  00000+0  14200-2 0  9997
2 66909  51.6257 107.3696 0005352  28.2570 331.8716 15.68880735 13889
